{
  "links" : {
    "next" : "https://api.nasa.gov/neo/rest/v1/feed?start_date=1997-03-09&end_date=1997-03-09&detailed=true&api_key=t0TVs3DtDT2H8Oy2Zy8m2eVrNsAVKAexjcZXUckd",
    "prev" : "https://api.nasa.gov/neo/rest/v1/feed?start_date=1997-03-07&end_date=1997-03-07&detailed=true&api_key=t0TVs3DtDT2H8Oy2Zy8m2eVrNsAVKAexjcZXUckd",
    "self" : "https://api.nasa.gov/neo/rest/v1/feed?start_date=1997-03-08&end_date=1997-03-08&detailed=true&api_key=t0TVs3DtDT2H8Oy2Zy8m2eVrNsAVKAexjcZXUckd"
  },
  "element_count" : 8,
  "near_earth_objects" : {
    "1997-03-08" : [ {
      "links" : {
        "self" : "https://api.nasa.gov/neo/rest/v1/neo/3759358?api_key=t0TVs3DtDT2H8Oy2Zy8m2eVrNsAVKAexjcZXUckd"
      },
      "neo_reference_id" : "3759358",
      "name" : "(2016 RD34)",
      "nasa_jpl_url" : "http://ssd.jpl.nasa.gov/sbdb.cgi?sstr=3759358",
      "absolute_magnitude_h" : 27.6,
      "estimated_diameter" : {
        "kilometers" : {
          "estimated_diameter_min" : 0.0080270317,
          "estimated_diameter_max" : 0.0179489885
        },
        "meters" : {
          "estimated_diameter_min" : 8.0270316728,
          "estimated_diameter_max" : 17.948988478
        },
        "miles" : {
          "estimated_diameter_min" : 0.0049877647,
          "estimated_diameter_max" : 0.0111529809
        },
        "feet" : {
          "estimated_diameter_min" : 26.3354065935,
          "estimated_diameter_max" : 58.8877593581
        }
      },
      "is_potentially_hazardous_asteroid" : false,
      "close_approach_data" : [ {
        "close_approach_date" : "1997-03-08",
        "epoch_date_close_approach" : 857808000000,
        "relative_velocity" : {
          "kilometers_per_second" : "3.0475838253",
          "kilometers_per_hour" : "10971.301771103",
          "miles_per_hour" : "6817.1402588279"
        },
        "miss_distance" : {
          "astronomical" : "0.1480454571",
          "lunar" : "57.589679718",
          "kilometers" : "22147284",
          "miles" : "13761684"
        },
        "orbiting_body" : "Earth"
      } ],
      "orbital_data" : {
        "orbit_id" : "24",
        "orbit_determination_date" : "2017-07-07 14:49:31",
        "orbit_uncertainty" : "2",
        "minimum_orbit_intersection" : ".00413039",
        "jupiter_tisserand_invariant" : "5.869",
        "epoch_osculation" : "2458000.5",
        "eccentricity" : ".03465790641939192",
        "semi_major_axis" : "1.046201107437048",
        "inclination" : "1.958140191587871",
        "ascending_node_longitude" : "349.6108221207024",
        "orbital_period" : "390.8599660611051",
        "perihelion_distance" : "1.009941967359631",
        "perihelion_argument" : "11.00424494728957",
        "aphelion_distance" : "1.082460247514466",
        "perihelion_time" : "2458045.010391022267",
        "mean_anomaly" : "319.003883335775",
        "mean_motion" : ".9210459787629398",
        "equinox" : "J2000"
      }
    }, {
      "links" : {
        "self" : "https://api.nasa.gov/neo/rest/v1/neo/2483656?api_key=t0TVs3DtDT2H8Oy2Zy8m2eVrNsAVKAexjcZXUckd"
      },
      "neo_reference_id" : "2483656",
      "name" : "483656 (2005 ES70)",
      "nasa_jpl_url" : "http://ssd.jpl.nasa.gov/sbdb.cgi?sstr=2483656",
      "absolute_magnitude_h" : 23.8,
      "estimated_diameter" : {
        "kilometers" : {
          "estimated_diameter_min" : 0.046190746,
          "estimated_diameter_max" : 0.1032856481
        },
        "meters" : {
          "estimated_diameter_min" : 46.1907460282,
          "estimated_diameter_max" : 103.2856480504
        },
        "miles" : {
          "estimated_diameter_min" : 0.0287015901,
          "estimated_diameter_max" : 0.0641787064
        },
        "feet" : {
          "estimated_diameter_min" : 151.544447199,
          "estimated_diameter_max" : 338.8636855496
        }
      },
      "is_potentially_hazardous_asteroid" : false,
      "close_approach_data" : [ {
        "close_approach_date" : "1997-03-08",
        "epoch_date_close_approach" : 857808000000,
        "relative_velocity" : {
          "kilometers_per_second" : "11.9169874048",
          "kilometers_per_hour" : "42901.1546572778",
          "miles_per_hour" : "26657.1091257958"
        },
        "miss_distance" : {
          "astronomical" : "0.0884573193",
          "lunar" : "34.4098968506",
          "kilometers" : "13233026",
          "miles" : "8222621.5"
        },
        "orbiting_body" : "Earth"
      } ],
      "orbital_data" : {
        "orbit_id" : "41",
        "orbit_determination_date" : "2017-07-20 13:13:56",
        "orbit_uncertainty" : "0",
        "minimum_orbit_intersection" : ".0515902",
        "jupiter_tisserand_invariant" : "7.480",
        "epoch_osculation" : "2456125.5",
        "eccentricity" : ".3864450668773289",
        "semi_major_axis" : ".7629535011587539",
        "inclination" : "20.83340836762825",
        "ascending_node_longitude" : "352.9209234711133",
        "orbital_period" : "243.4139883487221",
        "perihelion_distance" : ".468113884379167",
        "perihelion_argument" : "351.1779799498096",
        "aphelion_distance" : "1.057793117938341",
        "perihelion_time" : "2456231.633385316556",
        "mean_anomaly" : "203.0327732060237",
        "mean_motion" : "1.478961839630405",
        "equinox" : "J2000"
      }
    } ]
  }
}